CCSDS_OMM_VERS = 2.0
CREATION_DATE  = 
ORIGINATOR     = 

OBJECT_NAME    = ATLAS CENTAUR R/B
OBJECT_ID      = 1972-065B
CENTER_NAME    = EARTH
REF_FRAME      = TEME
TIME_SYSTEM    = UTC
MEAN_ELEMENT_THEORY = SGP/SGP4

EPOCH          = 2025-12-27T17:30:48.940704
MEAN_MOTION    = 14.77448776
ECCENTRICITY   = .00333319
INCLINATION    = 35.0025
RA_OF_ASC_NODE = 7.3882
ARG_OF_PERICENTER = 125.6125
MEAN_ANOMALY   = 234.7688

EPHEMERIS_TYPE = 0
CLASSIFICATION_TYPE = U
NORAD_CAT_ID   = 6155
ELEMENT_SET_NO = 999
REV_AT_EPOCH   = 83061
BSTAR          = .20665033E-3
MEAN_MOTION_DOT = .1486E-4
MEAN_MOTION_DDOT = 0

CCSDS_OMM_VERS = 2.0
CREATION_DATE  = 
ORIGINATOR     = 

OBJECT_NAME    = SL-8 R/B
OBJECT_ID      = 1975-112B
CENTER_NAME    = EARTH
REF_FRAME      = TEME
TIME_SYSTEM    = UTC
MEAN_ELEMENT_THEORY = SGP/SGP4

EPOCH          = 2025-12-27T18:52:21.472032
MEAN_MOTION    = 14.38155409
ECCENTRICITY   = .00166871
INCLINATION    = 74.0598
RA_OF_ASC_NODE = 151.1814
ARG_OF_PERICENTER = 261.0300
MEAN_ANOMALY   = 98.8965

EPHEMERIS_TYPE = 0
CLASSIFICATION_TYPE = U
NORAD_CAT_ID   = 8459
ELEMENT_SET_NO = 999
REV_AT_EPOCH   = 62153
BSTAR          = .11929347E-3
MEAN_MOTION_DOT = .336E-5
MEAN_MOTION_DDOT = 0

CCSDS_OMM_VERS = 2.0
CREATION_DATE  = 
ORIGINATOR     = 

OBJECT_NAME    = SL-3 R/B
OBJECT_ID      = 1977-057B
CENTER_NAME    = EARTH
REF_FRAME      = TEME
TIME_SYSTEM    = UTC
MEAN_ELEMENT_THEORY = SGP/SGP4

EPOCH          = 2025-12-27T22:19:07.156416
MEAN_MOTION    = 15.43321468
ECCENTRICITY   = .00074961
INCLINATION    = 97.5691
RA_OF_ASC_NODE = 165.8539
ARG_OF_PERICENTER = 173.3333
MEAN_ANOMALY   = 186.8016

EPHEMERIS_TYPE = 0
CLASSIFICATION_TYPE = U
NORAD_CAT_ID   = 10114
ELEMENT_SET_NO = 999
REV_AT_EPOCH   = 65725
BSTAR          = .33631634E-3
MEAN_MOTION_DOT = .14915E-3
MEAN_MOTION_DDOT = 0

CCSDS_OMM_VERS = 2.0
CREATION_DATE  = 
ORIGINATOR     = 

OBJECT_NAME    = SEASAT 1
OBJECT_ID      = 1978-064A
CENTER_NAME    = EARTH
REF_FRAME      = TEME
TIME_SYSTEM    = UTC
MEAN_ELEMENT_THEORY = SGP/SGP4

EPOCH          = 2025-12-27T19:58:00.663168
MEAN_MOTION    = 14.46078013
ECCENTRICITY   = .00012773
INCLINATION    = 108.0141
RA_OF_ASC_NODE = 334.6989
ARG_OF_PERICENTER = 257.2991
MEAN_ANOMALY   = 102.8011

EPHEMERIS_TYPE = 0
CLASSIFICATION_TYPE = U
NORAD_CAT_ID   = 10967
ELEMENT_SET_NO = 999
REV_AT_EPOCH   = 49612
BSTAR          = .17670747E-3
MEAN_MOTION_DOT = .494E-5
MEAN_MOTION_DDOT = 0

CCSDS_OMM_VERS = 2.0
CREATION_DATE  = 
ORIGINATOR     = 

OBJECT_NAME    = SL-14 R/B
OBJECT_ID      = 1979-011B
CENTER_NAME    = EARTH
REF_FRAME      = TEME
TIME_SYSTEM    = UTC
MEAN_ELEMENT_THEORY = SGP/SGP4

EPOCH          = 2025-12-27T21:07:17.870016
MEAN_MOTION    = 14.91789622
ECCENTRICITY   = .00147895
INCLINATION    = 82.5237
RA_OF_ASC_NODE = 164.6846
ARG_OF_PERICENTER = 300.3128
MEAN_ANOMALY   = 59.6628

EPHEMERIS_TYPE = 0
CLASSIFICATION_TYPE = U
NORAD_CAT_ID   = 11267
ELEMENT_SET_NO = 999
REV_AT_EPOCH   = 51807
BSTAR          = .84942439E-4
MEAN_MOTION_DOT = .883E-5
MEAN_MOTION_DDOT = 0

CCSDS_OMM_VERS = 2.0
CREATION_DATE  = 
ORIGINATOR     = 

OBJECT_NAME    = SL-8 R/B
OBJECT_ID      = 1979-089B
CENTER_NAME    = EARTH
REF_FRAME      = TEME
TIME_SYSTEM    = UTC
MEAN_ELEMENT_THEORY = SGP/SGP4

EPOCH          = 2025-12-27T21:18:35.786880
MEAN_MOTION    = 14.42293145
ECCENTRICITY   = .00147912
INCLINATION    = 74.0671
RA_OF_ASC_NODE = 223.9431
ARG_OF_PERICENTER = 52.1157
MEAN_ANOMALY   = 308.1334

EPHEMERIS_TYPE = 0
CLASSIFICATION_TYPE = U
NORAD_CAT_ID   = 11574
ELEMENT_SET_NO = 999
REV_AT_EPOCH   = 42575
BSTAR          = .94211561E-4
MEAN_MOTION_DOT = .285E-5
MEAN_MOTION_DDOT = 0

CCSDS_OMM_VERS = 2.0
CREATION_DATE  = 
ORIGINATOR     = 

OBJECT_NAME    = SL-14 R/B
OBJECT_ID      = 1980-005B
CENTER_NAME    = EARTH
REF_FRAME      = TEME
TIME_SYSTEM    = UTC
MEAN_ELEMENT_THEORY = SGP/SGP4

EPOCH          = 2025-12-27T12:14:57.931872
MEAN_MOTION    = 14.90809106
ECCENTRICITY   = .0016967
INCLINATION    = 82.5138
RA_OF_ASC_NODE = 15.6893
ARG_OF_PERICENTER = 48.3173
MEAN_ANOMALY   = 311.9495

EPHEMERIS_TYPE = 0
CLASSIFICATION_TYPE = U
NORAD_CAT_ID   = 11672
ELEMENT_SET_NO = 999
REV_AT_EPOCH   = 46573
BSTAR          = .68223931E-4
MEAN_MOTION_DOT = .698E-5
MEAN_MOTION_DDOT = 0

CCSDS_OMM_VERS = 2.0
CREATION_DATE  = 
ORIGINATOR     = 

OBJECT_NAME    = SL-8 R/B
OBJECT_ID      = 1981-003B
CENTER_NAME    = EARTH
REF_FRAME      = TEME
TIME_SYSTEM    = UTC
MEAN_ELEMENT_THEORY = SGP/SGP4

EPOCH          = 2025-12-27T11:25:17.618304
MEAN_MOTION    = 15.07500536
ECCENTRICITY   = .02772903
INCLINATION    = 82.9356
RA_OF_ASC_NODE = 356.6435
ARG_OF_PERICENTER = 69.6710
MEAN_ANOMALY   = 293.4080

EPHEMERIS_TYPE = 0
CLASSIFICATION_TYPE = U
NORAD_CAT_ID   = 12139
ELEMENT_SET_NO = 999
REV_AT_EPOCH   = 30378
BSTAR          = .56657827E-3
MEAN_MOTION_DOT = .21423E-3
MEAN_MOTION_DDOT = 0

CCSDS_OMM_VERS = 2.0
CREATION_DATE  = 
ORIGINATOR     = 

OBJECT_NAME    = SL-3 R/B
OBJECT_ID      = 1981-046B
CENTER_NAME    = EARTH
REF_FRAME      = TEME
TIME_SYSTEM    = UTC
MEAN_ELEMENT_THEORY = SGP/SGP4

EPOCH          = 2025-12-27T20:03:59.743296
MEAN_MOTION    = 15.39927899
ECCENTRICITY   = .00180469
INCLINATION    = 81.2326
RA_OF_ASC_NODE = 15.8733
ARG_OF_PERICENTER = 268.8895
MEAN_ANOMALY   = 91.0279

EPHEMERIS_TYPE = 0
CLASSIFICATION_TYPE = U
NORAD_CAT_ID   = 12465
ELEMENT_SET_NO = 999
REV_AT_EPOCH   = 42736
BSTAR          = .32338159E-3
MEAN_MOTION_DOT = .12977E-3
MEAN_MOTION_DDOT = 0

CCSDS_OMM_VERS = 2.0
CREATION_DATE  = 
ORIGINATOR     = 

OBJECT_NAME    = SL-3 R/B
OBJECT_ID      = 1981-103B
CENTER_NAME    = EARTH
REF_FRAME      = TEME
TIME_SYSTEM    = UTC
MEAN_ELEMENT_THEORY = SGP/SGP4

EPOCH          = 2025-12-27T22:18:19.448928
MEAN_MOTION    = 15.20415265
ECCENTRICITY   = .00130178
INCLINATION    = 81.1594
RA_OF_ASC_NODE = 297.5630
ARG_OF_PERICENTER = 159.6636
MEAN_ANOMALY   = 200.5116

EPHEMERIS_TYPE = 0
CLASSIFICATION_TYPE = U
NORAD_CAT_ID   = 12904
ELEMENT_SET_NO = 999
REV_AT_EPOCH   = 96232
BSTAR          = .3241234E-3
MEAN_MOTION_DOT = .7105E-4
MEAN_MOTION_DDOT = 0

CCSDS_OMM_VERS = 2.0
CREATION_DATE  = 
ORIGINATOR     = 

OBJECT_NAME    = SL-3 R/B
OBJECT_ID      = 1982-013B
CENTER_NAME    = EARTH
REF_FRAME      = TEME
TIME_SYSTEM    = UTC
MEAN_ELEMENT_THEORY = SGP/SGP4

EPOCH          = 2025-12-27T21:42:22.370976
MEAN_MOTION    = 15.21219801
ECCENTRICITY   = .00240716
INCLINATION    = 81.1738
RA_OF_ASC_NODE = 244.8584
ARG_OF_PERICENTER = 62.5038
MEAN_ANOMALY   = 297.8636

EPHEMERIS_TYPE = 0
CLASSIFICATION_TYPE = U
NORAD_CAT_ID   = 13068
ELEMENT_SET_NO = 999
REV_AT_EPOCH   = 39343
BSTAR          = .25478974E-3
MEAN_MOTION_DOT = .5755E-4
MEAN_MOTION_DDOT = 0

CCSDS_OMM_VERS = 2.0
CREATION_DATE  = 
ORIGINATOR     = 

OBJECT_NAME    = SL-3 R/B
OBJECT_ID      = 1982-039B
CENTER_NAME    = EARTH
REF_FRAME      = TEME
TIME_SYSTEM    = UTC
MEAN_ELEMENT_THEORY = SGP/SGP4

EPOCH          = 2025-12-27T21:14:04.282656
MEAN_MOTION    = 15.09614751
ECCENTRICITY   = .00294381
INCLINATION    = 81.1704
RA_OF_ASC_NODE = 298.6725
ARG_OF_PERICENTER = 200.7699
MEAN_ANOMALY   = 159.2332

EPHEMERIS_TYPE = 0
CLASSIFICATION_TYPE = U
NORAD_CAT_ID   = 13154
ELEMENT_SET_NO = 999
REV_AT_EPOCH   = 37080
BSTAR          = .22660154E-3
MEAN_MOTION_DOT = .3702E-4
MEAN_MOTION_DDOT = 0

