ATLAS CENTAUR R/B       
1 06155U 72065B   25361.72973311  .00001486  00000+0  20665-3 0  9997
2 06155  35.0025   7.3882 0033331 125.6125 234.7688 14.77448776830618
SL-8 R/B                
1 08459U 75112B   25361.78635963  .00000336  00000+0  11929-3 0  9992
2 08459  74.0598 151.1814 0016687 261.0300  98.8965 14.38155409621534
SL-3 R/B                
1 10114U 77057B   25361.92994394  .00014915  00000+0  33632-3 0  9998
2 10114  97.5691 165.8539 0007496 173.3333 186.8016 15.43321468657254
SEASAT 1                
1 10967U 78064A   25361.83195212  .00000494  00000+0  17671-3 0  9997
2 10967 108.0141 334.6989 0001277 257.2991 102.8011 14.46078013496123
SL-14 R/B               
1 11267U 79011B   25361.88006794  .00000883  00000+0  84942-4 0  9993
2 11267  82.5237 164.6846 0014789 300.3128  59.6628 14.91789622518073
SL-8 R/B                
1 11574U 79089B   25361.88791420  .00000285  00000+0  94212-4 0  9993
2 11574  74.0671 223.9431 0014791  52.1157 308.1334 14.42293145425752
SL-14 R/B               
1 11672U 80005B   25361.51039273  .00000698  00000+0  68224-4 0  9995
2 11672  82.5138  15.6893 0016967  48.3173 311.9495 14.90809106465738
SL-8 R/B                
1 12139U 81003B   25361.47589836  .00021423  00000+0  56658-3 0  9999
2 12139  82.9356 356.6435 0277290  69.6710 293.4080 15.07500536303788
SL-3 R/B                
1 12465U 81046B   25361.83610814  .00012977  00000+0  32338-3 0  9992
2 12465  81.2326  15.8733 0018046 268.8895  91.0279 15.39927899427366
SL-3 R/B                
1 12904U 81103B   25361.92939177  .00007105  00000+0  32412-3 0  9990
2 12904  81.1594 297.5630 0013017 159.6636 200.5116 15.20415265962324
SL-3 R/B                
1 13068U 82013B   25361.90442559  .00005755  00000+0  25479-3 0  9998
2 13068  81.1738 244.8584 0024071  62.5038 297.8636 15.21219801393434
SL-3 R/B                
1 13154U 82039B   25361.88477179  .00003702  00000+0  22660-3 0  9994
2 13154  81.1704 298.6725 0029438 200.7699 159.2332 15.09614751370807
